[{"OBJECT_NAME":"STARLINK-34155","OBJECT_ID":"2025-101AB","EPOCH":"2025-11-12T23:23:18.831264","MEAN_MOTION":15.27641422,"ECCENTRICITY":0.0001946,"INCLINATION":43.0055,"RA_OF_ASC_NODE":297.2372,"ARG_OF_PERICENTER":235.3123,"MEAN_ANOMALY":124.7546,"EPHEMERIS_TYPE":0,"CLASSIFICATION_TYPE":"U","NORAD_CAT_ID":64019,"ELEMENT_SET_NO":999,"REV_AT_EPOCH":2920,"BSTAR":0.0019424,"MEAN_MOTION_DOT":0.00053679,"MEAN_MOTION_DDOT":0},{"OBJECT_NAME":"STARLINK-34141","OBJECT_ID":"2025-101AC","EPOCH":"2025-11-13T00:51:56.389248","MEAN_MOTION":15.27556998,"ECCENTRICITY":0.00047699,"INCLINATION":43,"RA_OF_ASC_NODE":296.8351,"ARG_OF_PERICENTER":305.3056,"MEAN_ANOMALY":54.7349,"EPHEMERIS_TYPE":0,"CLASSIFICATION_TYPE":"U","NORAD_CAT_ID":64020,"ELEMENT_SET_NO":999,"REV_AT_EPOCH":2921,"BSTAR":0.00053116441,"MEAN_MOTION_DOT":0.00014376,"MEAN_MOTION_DDOT":0},{"OBJECT_NAME":"STARLINK-34062","OBJECT_ID":"2025-101AD","EPOCH":"2025-11-13T00:20:28.229568","MEAN_MOTION":15.27597096,"ECCENTRICITY":0.00057958,"INCLINATION":43.004,"RA_OF_ASC_NODE":296.6732,"ARG_OF_PERICENTER":293.7334,"MEAN_ANOMALY":66.2909,"EPHEMERIS_TYPE":0,"CLASSIFICATION_TYPE":"U","NORAD_CAT_ID":64021,"ELEMENT_SET_NO":999,"REV_AT_EPOCH":2921,"BSTAR":0.002373462,"MEAN_MOTION_DOT":0.00065693,"MEAN_MOTION_DDOT":0},{"OBJECT_NAME":"STARLINK-34051","OBJECT_ID":"2025-102A","EPOCH":"2025-11-12T16:03:46.303488","MEAN_MOTION":14.98354646,"ECCENTRICITY":0.00034762,"INCLINATION":70.0024,"RA_OF_ASC_NODE":49.5111,"ARG_OF_PERICENTER":265.7812,"MEAN_ANOMALY":94.295,"EPHEMERIS_TYPE":0,"CLASSIFICATION_TYPE":"U","NORAD_CAT_ID":64022,"ELEMENT_SET_NO":999,"REV_AT_EPOCH":2842,"BSTAR":0.0012449097,"MEAN_MOTION_DOT":0.00014802,"MEAN_MOTION_DDOT":0},{"OBJECT_NAME":"STARLINK-34184","OBJECT_ID":"2025-102B","EPOCH":"2025-11-13T05:16:39.148320","MEAN_MOTION":14.98338544,"ECCENTRICITY":0.00016843,"INCLINATION":70.0055,"RA_OF_ASC_NODE":48.2234,"ARG_OF_PERICENTER":232.3796,"MEAN_ANOMALY":127.721,"EPHEMERIS_TYPE":0,"CLASSIFICATION_TYPE":"U","NORAD_CAT_ID":64023,"ELEMENT_SET_NO":999,"REV_AT_EPOCH":2851,"BSTAR":0.0010379095,"MEAN_MOTION_DOT":0.00012315,"MEAN_MOTION_DDOT":0},{"OBJECT_NAME":"STARLINK-34087","OBJECT_ID":"2025-102C","EPOCH":"2025-11-13T06:04:40.406016","MEAN_MOTION":14.98345482,"ECCENTRICITY":0.00036803,"INCLINATION":70.0009,"RA_OF_ASC_NODE":47.9351,"ARG_OF_PERICENTER":270.8003,"MEAN_ANOMALY":89.2735,"EPHEMERIS_TYPE":0,"CLASSIFICATION_TYPE":"U","NORAD_CAT_ID":64024,"ELEMENT_SET_NO":999,"REV_AT_EPOCH":2840,"BSTAR":0.00070655302,"MEAN_MOTION_DOT":8.351e-5,"MEAN_MOTION_DDOT":0},{"OBJECT_NAME":"STARLINK-34088","OBJECT_ID":"2025-102D","EPOCH":"2025-11-13T05:28:55.037856","MEAN_MOTION":14.98342347,"ECCENTRICITY":0.0001829,"INCLINATION":70.0029,"RA_OF_ASC_NODE":48.2459,"ARG_OF_PERICENTER":261.2425,"MEAN_ANOMALY":98.8527,"EPHEMERIS_TYPE":0,"CLASSIFICATION_TYPE":"U","NORAD_CAT_ID":64025,"ELEMENT_SET_NO":999,"REV_AT_EPOCH":2851,"BSTAR":0.0010607721,"MEAN_MOTION_DOT":0.0001259,"MEAN_MOTION_DDOT":0},{"OBJECT_NAME":"STARLINK-33992","OBJECT_ID":"2025-102E","EPOCH":"2025-11-13T05:40:42.034368","MEAN_MOTION":14.98341782,"ECCENTRICITY":0.0002135,"INCLINATION":70.005,"RA_OF_ASC_NODE":48.2831,"ARG_OF_PERICENTER":236.3306,"MEAN_ANOMALY":123.765,"EPHEMERIS_TYPE":0,"CLASSIFICATION_TYPE":"U","NORAD_CAT_ID":64026,"ELEMENT_SET_NO":999,"REV_AT_EPOCH":2859,"BSTAR":0.0006705695,"MEAN_MOTION_DOT":7.919e-5,"MEAN_MOTION_DDOT":0},{"OBJECT_NAME":"STARLINK-33967","OBJECT_ID":"2025-102F","EPOCH":"2025-11-13T06:28:45.615360","MEAN_MOTION":14.98335463,"ECCENTRICITY":0.00026973,"INCLINATION":70.0022,"RA_OF_ASC_NODE":47.9929,"ARG_OF_PERICENTER":242.7577,"MEAN_ANOMALY":117.3308,"EPHEMERIS_TYPE":0,"CLASSIFICATION_TYPE":"U","NORAD_CAT_ID":64027,"ELEMENT_SET_NO":999,"REV_AT_EPOCH":2845,"BSTAR":0.001095338,"MEAN_MOTION_DOT":0.00013002,"MEAN_MOTION_DDOT":0},{"OBJECT_NAME":"STARLINK-33953","OBJECT_ID":"2025-102G","EPOCH":"2025-11-13T05:46:40.424160","MEAN_MOTION":14.98341859,"ECCENTRICITY":0.00026858,"INCLINATION":70.0039,"RA_OF_ASC_NODE":47.8918,"ARG_OF_PERICENTER":259.8876,"MEAN_ANOMALY":100.1981,"EPHEMERIS_TYPE":0,"CLASSIFICATION_TYPE":"U","NORAD_CAT_ID":64028,"ELEMENT_SET_NO":999,"REV_AT_EPOCH":2861,"BSTAR":0.00080998423,"MEAN_MOTION_DOT":9.588e-5,"MEAN_MOTION_DDOT":0},{"OBJECT_NAME":"STARLINK-33790","OBJECT_ID":"2025-102H","EPOCH":"2025-11-12T16:21:48.036672","MEAN_MOTION":14.98357363,"ECCENTRICITY":0.00032105,"INCLINATION":70.0018,"RA_OF_ASC_NODE":49.5467,"ARG_OF_PERICENTER":265.8687,"MEAN_ANOMALY":94.2106,"EPHEMERIS_TYPE":0,"CLASSIFICATION_TYPE":"U","NORAD_CAT_ID":64029,"ELEMENT_SET_NO":999,"REV_AT_EPOCH":2847,"BSTAR":0.0012181324,"MEAN_MOTION_DOT":0.00014482,"MEAN_MOTION_DDOT":0},{"OBJECT_NAME":"STARLINK-34030","OBJECT_ID":"2025-102J","EPOCH":"2025-11-13T05:28:40.190016","MEAN_MOTION":14.98351639,"ECCENTRICITY":0.00020762,"INCLINATION":70.0033,"RA_OF_ASC_NODE":48.2508,"ARG_OF_PERICENTER":260.8391,"MEAN_ANOMALY":99.2533,"EPHEMERIS_TYPE":0,"CLASSIFICATION_TYPE":"U","NORAD_CAT_ID":64030,"ELEMENT_SET_NO":999,"REV_AT_EPOCH":2851,"BSTAR":0.0010967177,"MEAN_MOTION_DOT":0.00013024,"MEAN_MOTION_DDOT":0},{"OBJECT_NAME":"STARLINK-34024","OBJECT_ID":"2025-102K","EPOCH":"2025-11-12T16:15:31.653216","MEAN_MOTION":14.98424888,"ECCENTRICITY":0.00038939,"INCLINATION":70.0022,"RA_OF_ASC_NODE":49.5355,"ARG_OF_PERICENTER":276.9382,"MEAN_ANOMALY":83.1334,"EPHEMERIS_TYPE":0,"CLASSIFICATION_TYPE":"U","NORAD_CAT_ID":64031,"ELEMENT_SET_NO":999,"REV_AT_EPOCH":2836,"BSTAR":0.0042196843,"MEAN_MOTION_DOT":0.00050749,"MEAN_MOTION_DDOT":0},{"OBJECT_NAME":"STARLINK-34019","OBJECT_ID":"2025-102L","EPOCH":"2025-11-13T05:58:41.684448","MEAN_MOTION":14.98347786,"ECCENTRICITY":0.00039222,"INCLINATION":70.002,"RA_OF_ASC_NODE":47.9198,"ARG_OF_PERICENTER":274.8816,"MEAN_ANOMALY":85.1896,"EPHEMERIS_TYPE":0,"CLASSIFICATION_TYPE":"U","NORAD_CAT_ID":64032,"ELEMENT_SET_NO":999,"REV_AT_EPOCH":2852,"BSTAR":0.0015525068,"MEAN_MOTION_DOT":0.0001849,"MEAN_MOTION_DDOT":0},{"OBJECT_NAME":"STARLINK-33860","OBJECT_ID":"2025-102M","EPOCH":"2025-11-13T06:16:43.574880","MEAN_MOTION":14.98347455,"ECCENTRICITY":0.00033551,"INCLINATION":70.0018,"RA_OF_ASC_NODE":47.9635,"ARG_OF_PERICENTER":277.8634,"MEAN_ANOMALY":82.2144,"EPHEMERIS_TYPE":0,"CLASSIFICATION_TYPE":"U","NORAD_CAT_ID":64033,"ELEMENT_SET_NO":999,"REV_AT_EPOCH":2852,"BSTAR":0.0018319442,"MEAN_MOTION_DOT":0.00021844,"MEAN_MOTION_DDOT":0},{"OBJECT_NAME":"STARLINK-33946","OBJECT_ID":"2025-102N","EPOCH":"2025-11-13T06:22:58.708128","MEAN_MOTION":14.98350476,"ECCENTRICITY":0.00019787,"INCLINATION":70.0016,"RA_OF_ASC_NODE":47.9813,"ARG_OF_PERICENTER":270.854,"MEAN_ANOMALY":89.2393,"EPHEMERIS_TYPE":0,"CLASSIFICATION_TYPE":"U","NORAD_CAT_ID":64034,"ELEMENT_SET_NO":999,"REV_AT_EPOCH":2856,"BSTAR":0.0015035241,"MEAN_MOTION_DOT":0.00017901,"MEAN_MOTION_DDOT":0},{"OBJECT_NAME":"STARLINK-34046","OBJECT_ID":"2025-102P","EPOCH":"2025-11-12T15:09:41.821056","MEAN_MOTION":14.98353075,"ECCENTRICITY":0.00031143,"INCLINATION":70.0024,"RA_OF_ASC_NODE":49.6605,"ARG_OF_PERICENTER":266.6757,"MEAN_ANOMALY":93.4046,"EPHEMERIS_TYPE":0,"CLASSIFICATION_TYPE":"U","NORAD_CAT_ID":64035,"ELEMENT_SET_NO":999,"REV_AT_EPOCH":2819,"BSTAR":0.00086149374,"MEAN_MOTION_DOT":0.00010207,"MEAN_MOTION_DDOT":0},{"OBJECT_NAME":"STARLINK-34085","OBJECT_ID":"2025-102Q","EPOCH":"2025-11-12T14:51:42.212448","MEAN_MOTION":14.98376846,"ECCENTRICITY":0.00035294,"INCLINATION":70.0019,"RA_OF_ASC_NODE":49.731,"ARG_OF_PERICENTER":274.7091,"MEAN_ANOMALY":85.3665,"EPHEMERIS_TYPE":0,"CLASSIFICATION_TYPE":"U","NORAD_CAT_ID":64036,"ELEMENT_SET_NO":999,"REV_AT_EPOCH":2841,"BSTAR":0.0021067845,"MEAN_MOTION_DOT":0.00025167,"MEAN_MOTION_DDOT":0},{"OBJECT_NAME":"STARLINK-34008","OBJECT_ID":"2025-102R","EPOCH":"2025-11-12T16:09:47.778624","MEAN_MOTION":14.98319628,"ECCENTRICITY":0.00039292,"INCLINATION":70.0028,"RA_OF_ASC_NODE":49.5156,"ARG_OF_PERICENTER":268.3308,"MEAN_ANOMALY":91.7401,"EPHEMERIS_TYPE":0,"CLASSIFICATION_TYPE":"U","NORAD_CAT_ID":64037,"ELEMENT_SET_NO":999,"REV_AT_EPOCH":2843,"BSTAR":-0.00012381858,"MEAN_MOTION_DOT":-1.57e-5,"MEAN_MOTION_DDOT":0},{"OBJECT_NAME":"STARLINK-34079","OBJECT_ID":"2025-102S","EPOCH":"2025-11-13T05:52:41.049120","MEAN_MOTION":14.98343847,"ECCENTRICITY":0.00037987,"INCLINATION":69.9983,"RA_OF_ASC_NODE":47.9011,"ARG_OF_PERICENTER":269.8214,"MEAN_ANOMALY":90.251,"EPHEMERIS_TYPE":0,"CLASSIFICATION_TYPE":"U","NORAD_CAT_ID":64038,"ELEMENT_SET_NO":999,"REV_AT_EPOCH":2861,"BSTAR":0.0014845522,"MEAN_MOTION_DOT":0.00017672,"MEAN_MOTION_DDOT":0},{"OBJECT_NAME":"STARLINK-34089","OBJECT_ID":"2025-102T","EPOCH":"2025-11-12T16:51:51.177888","MEAN_MOTION":14.98356804,"ECCENTRICITY":0.00026433,"INCLINATION":70.0028,"RA_OF_ASC_NODE":49.6219,"ARG_OF_PERICENTER":266.8155,"MEAN_ANOMALY":93.2701,"EPHEMERIS_TYPE":0,"CLASSIFICATION_TYPE":"U","NORAD_CAT_ID":64039,"ELEMENT_SET_NO":999,"REV_AT_EPOCH":2842,"BSTAR":0.001145683,"MEAN_MOTION_DOT":0.00013613,"MEAN_MOTION_DDOT":0},{"OBJECT_NAME":"STARLINK-34117","OBJECT_ID":"2025-102U","EPOCH":"2025-11-11T16:31:28.866720","MEAN_MOTION":14.99063147,"ECCENTRICITY":0.00053013,"INCLINATION":70.0019,"RA_OF_ASC_NODE":52.101,"ARG_OF_PERICENTER":304.2388,"MEAN_ANOMALY":55.8269,"EPHEMERIS_TYPE":0,"CLASSIFICATION_TYPE":"U","NORAD_CAT_ID":64040,"ELEMENT_SET_NO":999,"REV_AT_EPOCH":2821,"BSTAR":0.025618812,"MEAN_MOTION_DOT":0.00326406,"MEAN_MOTION_DDOT":0},{"OBJECT_NAME":"STARLINK-34111","OBJECT_ID":"2025-102V","EPOCH":"2025-11-13T08:00:01.000224","MEAN_MOTION":14.98332627,"ECCENTRICITY":0.00029742,"INCLINATION":70.0023,"RA_OF_ASC_NODE":47.8771,"ARG_OF_PERICENTER":266.9225,"MEAN_ANOMALY":29.0021,"EPHEMERIS_TYPE":0,"CLASSIFICATION_TYPE":"U","NORAD_CAT_ID":64041,"ELEMENT_SET_NO":999,"REV_AT_EPOCH":578,"BSTAR":-0.00040788574,"MEAN_MOTION_DOT":-4.957e-5,"MEAN_MOTION_DDOT":0}]
